start=new Date('2022-02-03T00:00:00.000Z').valueOf();
sats=[{"OBJECT_TYPE":"PAYLOAD","SEMIMAJOR_AXIS":"6925.356","INCLINATION":"53.0540","FILE":"3290513","DECAY_DATE":null,"TLE_LINE1":"1 48116U 21027AA  22033.76233947  .00000993  00000-0  85588-4 0  9992","RA_OF_ASC_NODE":"47.0960","REV_AT_EPOCH":"4694","MEAN_ELEMENT_THEORY":"SGP4","GP_ID":"195193292","NORAD_CAT_ID":"48116","EPHEMERIS_TYPE":"0","ELEMENT_SET_NO":"999","APOAPSIS":"548.278","REF_FRAME":"TEME","PERIOD":"95.592","CLASSIFICATION_TYPE":"U","SITE":"AFETR","PERIAPSIS":"546.163","EPOCH":"2022-02-02T18:17:46.130208","TIME_SYSTEM":"UTC","OBJECT_ID":"2021-027AA","OBJECT_NAME":"STARLINK-2454","BSTAR":"0.00008558800000","MEAN_MOTION_DOT":"0.00000993","MEAN_ANOMALY":"300.7090","CENTER_NAME":"EARTH","ARG_OF_PERICENTER":"59.4050","LAUNCH_DATE":"2021-04-07","RCS_SIZE":"LARGE","TLE_LINE2":"2 48116  53.0540  47.0960 0001527  59.4050 300.7090 15.06397720 46945","MEAN_MOTION":"15.06397720","ECCENTRICITY":"0.00015270","MEAN_MOTION_DDOT":"0.0000000000000","COUNTRY_CODE":"US"},{"TIME_SYSTEM":"UTC","EPOCH":"2022-02-02T16:02:25.291392","OBJECT_ID":"2021-027AB","OBJECT_NAME":"STARLINK-2455","MEAN_MOTION_DOT":"0.00000046","BSTAR":"0.00002200700000","MEAN_ANOMALY":"284.4419","SITE":"AFETR","PERIAPSIS":"546.165","CLASSIFICATION_TYPE":"U","ELEMENT_SET_NO":"999","APOAPSIS":"548.316","REF_FRAME":"TEME","PERIOD":"95.593","MEAN_MOTION":"15.06391322","ECCENTRICITY":"0.00015530","MEAN_MOTION_DDOT":"0.0000000000000","COUNTRY_CODE":"US","TLE_LINE2":"2 48117  53.0564  27.5157 0001553  75.6743 284.4419 15.06391322 47217","RCS_SIZE":"LARGE","ARG_OF_PERICENTER":"75.6743","LAUNCH_DATE":"2021-04-07","CENTER_NAME":"EARTH","FILE":"3290513","DECAY_DATE":null,"TLE_LINE1":"1 48117U 21027AB  22033.66834828  .00000046  00000-0  22007-4 0  9993","SEMIMAJOR_AXIS":"6925.375","INCLINATION":"53.0564","OBJECT_TYPE":"PAYLOAD","EPHEMERIS_TYPE":"0","NORAD_CAT_ID":"48117","MEAN_ELEMENT_THEORY":"SGP4","GP_ID":"195191541","RA_OF_ASC_NODE":"27.5157","REV_AT_EPOCH":"4721"},{"OBJECT_TYPE":"PAYLOAD","INCLINATION":"53.0560","SEMIMAJOR_AXIS":"6925.370","FILE":"3290513","TLE_LINE1":"1 48118U 21027AC  22033.67940168  .00001424  00000-0  11447-3 0  9996","DECAY_DATE":null,"RA_OF_ASC_NODE":"27.4608","REV_AT_EPOCH":"4721","MEAN_ELEMENT_THEORY":"SGP4","GP_ID":"195191791","NORAD_CAT_ID":"48118","EPHEMERIS_TYPE":"0","APOAPSIS":"548.292","ELEMENT_SET_NO":"999","PERIOD":"95.593","REF_FRAME":"TEME","CLASSIFICATION_TYPE":"U","SITE":"AFETR","PERIAPSIS":"546.177","EPOCH":"2022-02-02T16:18:20.305152","TIME_SYSTEM":"UTC","MEAN_MOTION_DOT":"0.00001424","BSTAR":"0.00011447000000","MEAN_ANOMALY":"293.1857","OBJECT_NAME":"STARLINK-2458","OBJECT_ID":"2021-027AC","CENTER_NAME":"EARTH","LAUNCH_DATE":"2021-04-07","ARG_OF_PERICENTER":"66.9293","RCS_SIZE":"LARGE","TLE_LINE2":"2 48118  53.0560  27.4608 0001527  66.9293 293.1857 15.06393111 47219","ECCENTRICITY":"0.00015270","MEAN_MOTION":"15.06393111","COUNTRY_CODE":"US","MEAN_MOTION_DDOT":"0.0000000000000"},{"FILE":"3290513","DECAY_DATE":null,"TLE_LINE1":"1 48119U 21027AD  22033.67571713 -.00001255  00000-0 -65407-4 0  9993","OBJECT_TYPE":"PAYLOAD","INCLINATION":"53.0562","SEMIMAJOR_AXIS":"6925.364","EPHEMERIS_TYPE":"0","NORAD_CAT_ID":"48119","RA_OF_ASC_NODE":"27.4752","REV_AT_EPOCH":"4720","MEAN_ELEMENT_THEORY":"SGP4","GP_ID":"195193042","SITE":"AFETR","PERIAPSIS":"546.204","TIME_SYSTEM":"UTC","EPOCH":"2022-02-02T16:13:01.960032","OBJECT_ID":"2021-027AD","OBJECT_NAME":"STARLINK-2459","BSTAR":"-0.00006540700000","MEAN_MOTION_DOT":"-0.00001255","MEAN_ANOMALY":"288.7038","ELEMENT_SET_NO":"999","APOAPSIS":"548.254","REF_FRAME":"TEME","PERIOD":"95.592","CLASSIFICATION_TYPE":"U","TLE_LINE2":"2 48119  53.0562  27.4752 0001480  71.4112 288.7038 15.06394830 47200","RCS_SIZE":"LARGE","MEAN_MOTION":"15.06394830","ECCENTRICITY":"0.00014800","MEAN_MOTION_DDOT":"0.0000000000000","COUNTRY_CODE":"US","CENTER_NAME":"EARTH","ARG_OF_PERICENTER":"71.4112","LAUNCH_DATE":"2021-04-07"},{"CENTER_NAME":"EARTH","LAUNCH_DATE":"2021-04-07","ARG_OF_PERICENTER":"77.6605","RCS_SIZE":"LARGE","TLE_LINE2":"2 48120  53.0554  47.1695 0001494  77.6605 282.4551 15.06396223 46958","ECCENTRICITY":"0.00014940","MEAN_MOTION":"15.06396223","COUNTRY_CODE":"US","MEAN_MOTION_DDOT":"0.0000000000000","APOAPSIS":"548.260","ELEMENT_SET_NO":"999","PERIOD":"95.592","REF_FRAME":"TEME","CLASSIFICATION_TYPE":"U","SITE":"AFETR","PERIAPSIS":"546.190","TIME_SYSTEM":"UTC","EPOCH":"2022-02-02T17:56:32.204544","MEAN_MOTION_DOT":"0.00002030","MEAN_ANOMALY":"282.4551","BSTAR":"0.00015514000000","OBJECT_ID":"2021-027AE","OBJECT_NAME":"STARLINK-2460","RA_OF_ASC_NODE":"47.1695","REV_AT_EPOCH":"4695","MEAN_ELEMENT_THEORY":"SGP4","GP_ID":"195192793","EPHEMERIS_TYPE":"0","NORAD_CAT_ID":"48120","OBJECT_TYPE":"PAYLOAD","INCLINATION":"53.0554","SEMIMAJOR_AXIS":"6925.360","FILE":"3290513","TLE_LINE1":"1 48120U 21027AE  22033.74759496  .00002030  00000-0  15514-3 0  9992","DECAY_DATE":null},{"RA_OF_ASC_NODE":"36.7013","REV_AT_EPOCH":"4709","MEAN_ELEMENT_THEORY":"SGP4","GP_ID":"195192041","NORAD_CAT_ID":"48121","EPHEMERIS_TYPE":"0","OBJECT_TYPE":"PAYLOAD","INCLINATION":"53.0568","SEMIMAJOR_AXIS":"6925.368","FILE":"3290513","TLE_LINE1":"1 48121U 21027AF  22033.85172284  .00001498  00000-0  11949-3 0  9994","DECAY_DATE":null,"CENTER_NAME":"EARTH","LAUNCH_DATE":"2021-04-07","ARG_OF_PERICENTER":"79.0205","TLE_LINE2":"2 48121  53.0568  36.7013 0001420  79.0205 281.0943 15.06393728 47096","RCS_SIZE":"LARGE","ECCENTRICITY":"0.00014200","MEAN_MOTION":"15.06393728","COUNTRY_CODE":"US","MEAN_MOTION_DDOT":"0.0000000000000","APOAPSIS":"548.216","ELEMENT_SET_NO":"999","PERIOD":"95.593","REF_FRAME":"TEME","CLASSIFICATION_TYPE":"U","SITE":"AFETR","PERIAPSIS":"546.249","EPOCH":"2022-02-02T20:26:28.853376","TIME_SYSTEM":"UTC","MEAN_MOTION_DOT":"0.00001498","BSTAR":"0.00011949000000","MEAN_ANOMALY":"281.0943","OBJECT_ID":"2021-027AF","OBJECT_NAME":"STARLINK-2462"},{"GP_ID":"195192291","MEAN_ELEMENT_THEORY":"SGP4","REV_AT_EPOCH":"4715","RA_OF_ASC_NODE":"32.2844","NORAD_CAT_ID":"48122","EPHEMERIS_TYPE":"0","SEMIMAJOR_AXIS":"6925.351","INCLINATION":"53.0552","OBJECT_TYPE":"PAYLOAD","DECAY_DATE":null,"TLE_LINE1":"1 48122U 21027AG  22033.72038712  .00003651  00000-0  26386-3 0  9992","FILE":"3290513","ARG_OF_PERICENTER":"59.4244","LAUNCH_DATE":"2021-04-07","CENTER_NAME":"EARTH","MEAN_MOTION_DDOT":"0.0000000000000","COUNTRY_CODE":"US","MEAN_MOTION":"15.06399189","ECCENTRICITY":"0.00018700","TLE_LINE2":"2 48122  53.0552  32.2844 0001870  59.4244 300.6929 15.06399189 47153","RCS_SIZE":"LARGE","CLASSIFICATION_TYPE":"U","REF_FRAME":"TEME","PERIOD":"95.592","ELEMENT_SET_NO":"999","APOAPSIS":"548.511","OBJECT_ID":"2021-027AG","OBJECT_NAME":"STARLINK-2463","BSTAR":"0.00026386000000","MEAN_MOTION_DOT":"0.00003651","MEAN_ANOMALY":"300.6929","TIME_SYSTEM":"UTC","EPOCH":"2022-02-02T17:17:21.447168","PERIAPSIS":"545.921","SITE":"AFETR"},{"CLASSIFICATION_TYPE":"U","ELEMENT_SET_NO":"999","APOAPSIS":"548.265","REF_FRAME":"TEME","PERIOD":"95.592","EPOCH":"2022-02-02T09:29:37.538304","TIME_SYSTEM":"UTC","OBJECT_NAME":"STARLINK-2464","OBJECT_ID":"2021-027AH","MEAN_MOTION_DOT":"0.00001629","BSTAR":"0.00012823000000","MEAN_ANOMALY":"276.8944","SITE":"AFETR","PERIAPSIS":"546.131","ARG_OF_PERICENTER":"83.2221","LAUNCH_DATE":"2021-04-07","CENTER_NAME":"EARTH","MEAN_MOTION":"15.06404999","ECCENTRICITY":"0.00015410","MEAN_MOTION_DDOT":"0.0000000000000","COUNTRY_CODE":"US","RCS_SIZE":"LARGE","TLE_LINE2":"2 48123  53.0568  28.7355 0001541  83.2221 276.8944 15.06404999 46766","INCLINATION":"53.0568","SEMIMAJOR_AXIS":"6925.333","OBJECT_TYPE":"PAYLOAD","FILE":"3290405","DECAY_DATE":null,"TLE_LINE1":"1 48123U 21027AH  22033.39557336  .00001629  00000-0  12823-3 0  9998","MEAN_ELEMENT_THEORY":"SGP4","GP_ID":"195168683","RA_OF_ASC_NODE":"28.7355","REV_AT_EPOCH":"4676","NORAD_CAT_ID":"48123","EPHEMERIS_TYPE":"0"},{"REV_AT_EPOCH":"4707","RA_OF_ASC_NODE":"37.2702","GP_ID":"195193293","MEAN_ELEMENT_THEORY":"SGP4","EPHEMERIS_TYPE":"0","NORAD_CAT_ID":"48124","OBJECT_TYPE":"PAYLOAD","SEMIMAJOR_AXIS":"6925.330","INCLINATION":"53.0544","DECAY_DATE":null,"TLE_LINE1":"1 48124U 21027AJ  22033.72639390  .00005943  00000-0  41748-3 0  9998","FILE":"3290513","CENTER_NAME":"EARTH","ARG_OF_PERICENTER":"69.3913","LAUNCH_DATE":"2021-04-07","TLE_LINE2":"2 48124  53.0544  37.2702 0001686  69.3913 290.7256 15.06406163 47076","RCS_SIZE":"LARGE","MEAN_MOTION_DDOT":"0.0000000000000","COUNTRY_CODE":"US","MEAN_MOTION":"15.06406163","ECCENTRICITY":"0.00016860","REF_FRAME":"TEME","PERIOD":"95.592","ELEMENT_SET_NO":"999","APOAPSIS":"548.362","CLASSIFICATION_TYPE":"U","PERIAPSIS":"546.027","SITE":"AFETR","OBJECT_NAME":"STARLINK-2465","OBJECT_ID":"2021-027AJ","MEAN_MOTION_DOT":"0.00005943","BSTAR":"0.00041748000000","MEAN_ANOMALY":"290.7256","TIME_SYSTEM":"UTC","EPOCH":"2022-02-02T17:26:00.432960"},{"REV_AT_EPOCH":"4689","RA_OF_ASC_NODE":"48.7961","GP_ID":"195162101","MEAN_ELEMENT_THEORY":"SGP4","NORAD_CAT_ID":"48125","EPHEMERIS_TYPE":"0","OBJECT_TYPE":"PAYLOAD","SEMIMAJOR_AXIS":"6925.348","INCLINATION":"53.0555","TLE_LINE1":"1 48125U 21027AK  22033.38542562  .00003613  00000-0  26131-3 0  9996","DECAY_DATE":null,"FILE":"3290262","CENTER_NAME":"EARTH","LAUNCH_DATE":"2021-04-07","ARG_OF_PERICENTER":"71.0548","TLE_LINE2":"2 48125  53.0555  48.7961 0001613  71.0548 289.0616 15.06400062 46899","RCS_SIZE":"LARGE","COUNTRY_CODE":"US","MEAN_MOTION_DDOT":"0.0000000000000","ECCENTRICITY":"0.00016130","MEAN_MOTION":"15.06400062","PERIOD":"95.592","REF_FRAME":"TEME","APOAPSIS":"548.330","ELEMENT_SET_NO":"999","CLASSIFICATION_TYPE":"U","PERIAPSIS":"546.096","SITE":"AFETR","MEAN_MOTION_DOT":"0.00003613","MEAN_ANOMALY":"289.0616","BSTAR":"0.00026131000000","OBJECT_NAME":"STARLINK-2466","OBJECT_ID":"2021-027AK","TIME_SYSTEM":"UTC","EPOCH":"2022-02-02T09:15:00.773568"}];
